[{"OBJECT_NAME":"TEN-KOH 2","OBJECT_ID":"2025-241B","EPOCH":"2026-04-05T00:04:56.122176","MEAN_MOTION":15.22922678,"ECCENTRICITY":0.00046441,"INCLINATION":51.6396,"RA_OF_ASC_NODE":307.7582,"ARG_OF_PERICENTER":254.3593,"MEAN_ANOMALY":105.6872,"EPHEMERIS_TYPE":0,"CLASSIFICATION_TYPE":"U","NORAD_CAT_ID":68261,"ELEMENT_SET_NO":999,"REV_AT_EPOCH":375,"BSTAR":0.0004597127,"MEAN_MOTION_DOT":0.00010618,"MEAN_MOTION_DDOT":0},{"OBJECT_NAME":"STARLINK-37162","OBJECT_ID":"2026-055A","EPOCH":"2026-04-05T06:00:02.000160","MEAN_MOTION":15.80943592,"ECCENTRICITY":0.00010978,"INCLINATION":53.1586,"RA_OF_ASC_NODE":204.1872,"ARG_OF_PERICENTER":133.409,"MEAN_ANOMALY":181.4445,"EPHEMERIS_TYPE":0,"CLASSIFICATION_TYPE":"U","NORAD_CAT_ID":68262,"ELEMENT_SET_NO":999,"REV_AT_EPOCH":390,"BSTAR":-0.00030246614,"MEAN_MOTION_DOT":-0.00060176,"MEAN_MOTION_DDOT":0},{"OBJECT_NAME":"STARLINK-37156","OBJECT_ID":"2026-055B","EPOCH":"2026-04-05T06:00:02.000160","MEAN_MOTION":15.80939354,"ECCENTRICITY":0.00013079,"INCLINATION":53.1587,"RA_OF_ASC_NODE":204.1784,"ARG_OF_PERICENTER":126.7796,"MEAN_ANOMALY":192.3429,"EPHEMERIS_TYPE":0,"CLASSIFICATION_TYPE":"U","NORAD_CAT_ID":68263,"ELEMENT_SET_NO":999,"REV_AT_EPOCH":390,"BSTAR":-0.00020546406,"MEAN_MOTION_DOT":-0.00041184,"MEAN_MOTION_DDOT":0},{"OBJECT_NAME":"STARLINK-37163","OBJECT_ID":"2026-055C","EPOCH":"2026-04-05T06:00:02.000160","MEAN_MOTION":15.80957551,"ECCENTRICITY":8.766e-5,"INCLINATION":53.1586,"RA_OF_ASC_NODE":204.1597,"ARG_OF_PERICENTER":137.7425,"MEAN_ANOMALY":189.921,"EPHEMERIS_TYPE":0,"CLASSIFICATION_TYPE":"U","NORAD_CAT_ID":68264,"ELEMENT_SET_NO":999,"REV_AT_EPOCH":390,"BSTAR":-0.00042490131,"MEAN_MOTION_DOT":-0.00084073,"MEAN_MOTION_DDOT":0},{"OBJECT_NAME":"STARLINK-37133","OBJECT_ID":"2026-055D","EPOCH":"2026-04-05T06:00:02.000160","MEAN_MOTION":15.8089326,"ECCENTRICITY":0.00011833,"INCLINATION":53.1586,"RA_OF_ASC_NODE":204.1691,"ARG_OF_PERICENTER":124.1241,"MEAN_ANOMALY":199.2806,"EPHEMERIS_TYPE":0,"CLASSIFICATION_TYPE":"U","NORAD_CAT_ID":68265,"ELEMENT_SET_NO":999,"REV_AT_EPOCH":390,"BSTAR":0.0003639936,"MEAN_MOTION_DOT":0.00071808,"MEAN_MOTION_DDOT":0},{"OBJECT_NAME":"STARLINK-37042","OBJECT_ID":"2026-055E","EPOCH":"2026-04-05T06:00:02.000160","MEAN_MOTION":15.80935689,"ECCENTRICITY":0.00011315,"INCLINATION":53.1585,"RA_OF_ASC_NODE":204.1514,"ARG_OF_PERICENTER":96.4324,"MEAN_ANOMALY":235.5068,"EPHEMERIS_TYPE":0,"CLASSIFICATION_TYPE":"U","NORAD_CAT_ID":68266,"ELEMENT_SET_NO":999,"REV_AT_EPOCH":390,"BSTAR":-0.00016808348,"MEAN_MOTION_DOT":-0.0003384,"MEAN_MOTION_DDOT":0},{"OBJECT_NAME":"STARLINK-37103","OBJECT_ID":"2026-055F","EPOCH":"2026-04-05T06:00:02.000160","MEAN_MOTION":15.80898454,"ECCENTRICITY":0.00011765,"INCLINATION":53.1586,"RA_OF_ASC_NODE":204.1425,"ARG_OF_PERICENTER":99.6654,"MEAN_ANOMALY":236.5552,"EPHEMERIS_TYPE":0,"CLASSIFICATION_TYPE":"U","NORAD_CAT_ID":68267,"ELEMENT_SET_NO":999,"REV_AT_EPOCH":390,"BSTAR":0.00030039429,"MEAN_MOTION_DOT":0.00059065,"MEAN_MOTION_DDOT":0},{"OBJECT_NAME":"STARLINK-36999","OBJECT_ID":"2026-055G","EPOCH":"2026-04-05T06:00:02.000160","MEAN_MOTION":15.80905859,"ECCENTRICITY":0.00012234,"INCLINATION":53.1586,"RA_OF_ASC_NODE":204.1336,"ARG_OF_PERICENTER":106.4487,"MEAN_ANOMALY":234.0413,"EPHEMERIS_TYPE":0,"CLASSIFICATION_TYPE":"U","NORAD_CAT_ID":68268,"ELEMENT_SET_NO":999,"REV_AT_EPOCH":390,"BSTAR":0.00020071801,"MEAN_MOTION_DOT":0.00039156,"MEAN_MOTION_DDOT":0},{"OBJECT_NAME":"STARLINK-36962","OBJECT_ID":"2026-055H","EPOCH":"2026-04-05T06:00:02.000160","MEAN_MOTION":15.80896726,"ECCENTRICITY":0.00011335,"INCLINATION":53.1586,"RA_OF_ASC_NODE":204.1248,"ARG_OF_PERICENTER":109.1424,"MEAN_ANOMALY":235.6199,"EPHEMERIS_TYPE":0,"CLASSIFICATION_TYPE":"U","NORAD_CAT_ID":68269,"ELEMENT_SET_NO":999,"REV_AT_EPOCH":390,"BSTAR":0.00032405662,"MEAN_MOTION_DOT":0.00063803,"MEAN_MOTION_DDOT":0},{"OBJECT_NAME":"STARLINK-37028","OBJECT_ID":"2026-055J","EPOCH":"2026-04-05T06:00:02.000160","MEAN_MOTION":15.80913288,"ECCENTRICITY":7.366e-5,"INCLINATION":53.1586,"RA_OF_ASC_NODE":204.1066,"ARG_OF_PERICENTER":121.5391,"MEAN_ANOMALY":231.758,"EPHEMERIS_TYPE":0,"CLASSIFICATION_TYPE":"U","NORAD_CAT_ID":68270,"ELEMENT_SET_NO":999,"REV_AT_EPOCH":390,"BSTAR":0.0001622579,"MEAN_MOTION_DOT":0.00031502,"MEAN_MOTION_DDOT":0},{"OBJECT_NAME":"STARLINK-37029","OBJECT_ID":"2026-055K","EPOCH":"2026-04-05T06:00:02.000160","MEAN_MOTION":15.80965881,"ECCENTRICITY":0.00013422,"INCLINATION":53.1587,"RA_OF_ASC_NODE":204.1159,"ARG_OF_PERICENTER":48.469,"MEAN_ANOMALY":300.5208,"EPHEMERIS_TYPE":0,"CLASSIFICATION_TYPE":"U","NORAD_CAT_ID":68271,"ELEMENT_SET_NO":999,"REV_AT_EPOCH":390,"BSTAR":-0.00016851421,"MEAN_MOTION_DOT":-0.00033972,"MEAN_MOTION_DDOT":0},{"OBJECT_NAME":"STARLINK-36974","OBJECT_ID":"2026-055L","EPOCH":"2026-04-05T06:00:02.000160","MEAN_MOTION":15.80911408,"ECCENTRICITY":0.00014329,"INCLINATION":53.1586,"RA_OF_ASC_NODE":204.0981,"ARG_OF_PERICENTER":99.7988,"MEAN_ANOMALY":257.7588,"EPHEMERIS_TYPE":0,"CLASSIFICATION_TYPE":"U","NORAD_CAT_ID":68272,"ELEMENT_SET_NO":999,"REV_AT_EPOCH":390,"BSTAR":0.00079710095,"MEAN_MOTION_DOT":0.00159851,"MEAN_MOTION_DDOT":0},{"OBJECT_NAME":"STARLINK-37019","OBJECT_ID":"2026-055M","EPOCH":"2026-04-05T06:00:02.000160","MEAN_MOTION":15.80969147,"ECCENTRICITY":0.00014965,"INCLINATION":53.1586,"RA_OF_ASC_NODE":204.0886,"ARG_OF_PERICENTER":117.8135,"MEAN_ANOMALY":243.9923,"EPHEMERIS_TYPE":0,"CLASSIFICATION_TYPE":"U","NORAD_CAT_ID":68273,"ELEMENT_SET_NO":999,"REV_AT_EPOCH":390,"BSTAR":-0.00021384092,"MEAN_MOTION_DOT":-0.00042886,"MEAN_MOTION_DDOT":0},{"OBJECT_NAME":"STARLINK-37129","OBJECT_ID":"2026-055N","EPOCH":"2026-04-05T06:00:02.000160","MEAN_MOTION":15.80965883,"ECCENTRICITY":0.00016475,"INCLINATION":53.1587,"RA_OF_ASC_NODE":204.0798,"ARG_OF_PERICENTER":60.7978,"MEAN_ANOMALY":305.2781,"EPHEMERIS_TYPE":0,"CLASSIFICATION_TYPE":"U","NORAD_CAT_ID":68274,"ELEMENT_SET_NO":999,"REV_AT_EPOCH":390,"BSTAR":-0.0001439455,"MEAN_MOTION_DOT":-0.00029139,"MEAN_MOTION_DDOT":0},{"OBJECT_NAME":"STARLINK-37123","OBJECT_ID":"2026-055P","EPOCH":"2026-04-05T06:00:02.000160","MEAN_MOTION":15.80975752,"ECCENTRICITY":0.00018028,"INCLINATION":53.1619,"RA_OF_ASC_NODE":204.0714,"ARG_OF_PERICENTER":108.9705,"MEAN_ANOMALY":261.3839,"EPHEMERIS_TYPE":0,"CLASSIFICATION_TYPE":"U","NORAD_CAT_ID":68275,"ELEMENT_SET_NO":999,"REV_AT_EPOCH":390,"BSTAR":-0.00040204884,"MEAN_MOTION_DOT":-0.00079706,"MEAN_MOTION_DDOT":0},{"OBJECT_NAME":"STARLINK-37125","OBJECT_ID":"2026-055Q","EPOCH":"2026-04-05T06:00:02.000160","MEAN_MOTION":15.80938336,"ECCENTRICITY":0.00010915,"INCLINATION":53.1619,"RA_OF_ASC_NODE":204.0623,"ARG_OF_PERICENTER":107.2654,"MEAN_ANOMALY":267.3904,"EPHEMERIS_TYPE":0,"CLASSIFICATION_TYPE":"U","NORAD_CAT_ID":68276,"ELEMENT_SET_NO":999,"REV_AT_EPOCH":390,"BSTAR":-0.00021307658,"MEAN_MOTION_DOT":-0.00042673,"MEAN_MOTION_DDOT":0}]
