TEN-KOH 2               
1 68261U 25241B   26095.00342734  .00010618  00000+0  45971-3 0  9996
2 68261  51.6396 307.7582 0004644 254.3593 105.6872 15.22922678  3754
STARLINK-37162          
1 68262U 26055A   26095.25002315 -.00060176  00000+0 -30247-3 0  9992
2 68262  53.1586 204.1872 0001097 133.4090 181.4445 15.80943592  3900
STARLINK-37156          
1 68263U 26055B   26095.25002315 -.00041184  00000+0 -20546-3 0  9992
2 68263  53.1587 204.1784 0001307 126.7796 192.3429 15.80939354  3900
STARLINK-37163          
1 68264U 26055C   26095.25002315 -.00084073  00000+0 -42490-3 0  9999
2 68264  53.1586 204.1597 0000876 137.7425 189.9210 15.80957551  3902
STARLINK-37133          
1 68265U 26055D   26095.25002315  .00071808  00000+0  36399-3 0  9991
2 68265  53.1586 204.1691 0001183 124.1241 199.2806 15.80893260  3907
STARLINK-37042          
1 68266U 26055E   26095.25002315 -.00033840  00000+0 -16808-3 0  9991
2 68266  53.1585 204.1514 0001131  96.4324 235.5068 15.80935689  3903
STARLINK-37103          
1 68267U 26055F   26095.25002315  .00059065  00000+0  30039-3 0  9999
2 68267  53.1586 204.1425 0001176  99.6654 236.5552 15.80898454  3903
STARLINK-36999          
1 68268U 26055G   26095.25002315  .00039156  00000+0  20072-3 0  9995
2 68268  53.1586 204.1336 0001223 106.4487 234.0413 15.80905859  3906
STARLINK-36962          
1 68269U 26055H   26095.25002315  .00063803  00000+0  32406-3 0  9996
2 68269  53.1586 204.1248 0001133 109.1424 235.6199 15.80896726  3900
STARLINK-37028          
1 68270U 26055J   26095.25002315  .00031502  00000+0  16226-3 0  9991
2 68270  53.1586 204.1066 0000736 121.5391 231.7580 15.80913288  3903
STARLINK-37029          
1 68271U 26055K   26095.25002315 -.00033972  00000+0 -16851-3 0  9991
2 68271  53.1587 204.1159 0001342  48.4690 300.5208 15.80965881  3909
STARLINK-36974          
1 68272U 26055L   26095.25002315  .00159851  00000+0  79710-3 0  9998
2 68272  53.1586 204.0981 0001432  99.7988 257.7588 15.80911408  3900
STARLINK-37019          
1 68273U 26055M   26095.25002315 -.00042886  00000+0 -21384-3 0  9994
2 68273  53.1586 204.0886 0001496 117.8135 243.9923 15.80969147  3904
STARLINK-37129          
1 68274U 26055N   26095.25002315 -.00029139  00000+0 -14395-3 0  9995
2 68274  53.1587 204.0798 0001647  60.7978 305.2781 15.80965883  3904
STARLINK-37123          
1 68275U 26055P   26095.25002315 -.00079706  00000+0 -40205-3 0  9990
2 68275  53.1619 204.0714 0001802 108.9705 261.3839 15.80975752  3907
STARLINK-37125          
1 68276U 26055Q   26095.25002315 -.00042673  00000+0 -21308-3 0  9997
2 68276  53.1619 204.0623 0001091 107.2654 267.3904 15.80938336  3908
